name,address,city,capacity,phone
"Campbell, Rogers and Owens","96162 Danielle Heights
Port Michaelberg, VA 12461",Moorehaven,4153,360-840-5718
"Taylor, Nguyen and Jordan","84563 Jeffery Unions
Tanyahaven, GA 69548",East Paul,4356,416.903.8690x75789
Shaw PLC,"USS Martinez
FPO AP 29453",Shannonport,4159,407.492.1217x234
Mcmillan LLC,"490 Brown Parkway Suite 530
North Nancybury, MA 17638",Houseville,1342,978.908.8955x15270
"Singh, Ramirez and Meyer","00410 Choi Tunnel
West Wesley, DE 23320",Jamesport,1490,+1-754-434-0227x37046
Barber-Golden,"34968 Nguyen Trafficway Apt. 650
East Brittanytown, VI 83868",New Susan,1430,001-765-896-1633x5463
Scott Group,"016 Gerald Groves Suite 734
Monicafort, CA 79373",New Stephanie,2892,+1-261-578-3376x074
White Inc,"3771 Thomas Knolls Apt. 753
North Travis, VI 21645",Jeffreychester,2684,+1-262-959-1224
Richardson Inc,"606 Nicholas Unions
New Nicholeberg, NM 92398",Prestonside,172,568-337-5662x1929
Bates-Roman,"04448 George Turnpike Apt. 460
North Trevorburgh, SD 70591",Lake Michelle,3120,795.545.7160x47065
Quinn-Holland,"16719 Joshua Plains
Rodriguezmouth, NJ 99001",Mayerville,3749,348-765-0026x5050
Diaz PLC,"6571 Keith Court
North Aaronview, MN 74049",Wilsonmouth,3400,961.370.9707x991
"Wheeler, Riggs and Goodwin","62045 Stacey Summit
North Thomas, NJ 33468",North Seanport,290,599.854.5990
Pena LLC,"52088 Thompson Shore
Leonardshire, SD 27873",Hannahhaven,4175,001-526-278-6585x4452
Curry Ltd,"8321 White Island
West David, WI 44967",Rogerview,4983,001-852-349-8540
Smith-Robinson,"284 Brian Route Suite 565
Brandontown, NJ 15498",Vickiborough,1634,(312)828-1104
"Williams, Nichols and Dunlap","Unit 0701 Box 9215
DPO AA 61792",Devinmouth,4075,001-347-714-3889
Le LLC,"78369 Andrea Track Apt. 427
East Jessica, ND 58852",West Veronicaton,184,272-664-8951x65472
"Underwood, Valdez and Zimmerman","945 Thomas Cliff Suite 538
East Zachary, MH 32758",South Jacob,652,2748893352
"Blankenship, Nelson and Davis","809 Edgar Flats
Frazierland, VA 75695",Davilaport,3387,(969)306-2617x4829
Nguyen-Walker,"00750 Beth Brook
Deanburgh, GU 72154",Vickibury,1084,351-741-7331
Oconnor-Watson,"123 Ramirez Drives Suite 739
Elizabethville, MT 78891",East Joe,4203,(595)903-5228
Parker-Green,"1219 Katie Streets
Jensenbury, RI 93189",East Kristintown,443,587.266.5792
"Morgan, White and Norris","738 David Causeway
North Lorimouth, MP 93584",Reidton,2363,001-383-948-5620x131
Stuart-Ortiz,"6989 Andrew Rapids Suite 762
Jacksonstad, NJ 34047",Lake Christian,3512,419.603.6346
"Ford, Ray and Wong","1327 Weaver Harbors
Joneshaven, VI 42846",Gregorystad,2166,+1-354-329-5649x5354
"Barker, King and Ross","21222 Cheryl Fields Apt. 565
Valdezton, NH 46332",Mooreburgh,2736,532.942.1885x5310
Perez-Hebert,"851 Lisa Port
Jessicabury, KS 86221",Walkerchester,1853,(744)307-8450
"Taylor, Jimenez and Collins","408 Ryan Passage
New Marilyn, NE 42377",New Donnachester,2027,(805)534-1367x394
Johnson LLC,"3365 Gray Islands
South Marisa, UT 28538",Port Lisaberg,4475,254-820-5776x4809
Wells-Santiago,"75231 Jennifer Lane Apt. 309
Michaelland, MA 67399",Leemouth,3634,994.651.6164x175
"Coleman, Wood and Caldwell","033 Carla Inlet
Rayville, AR 81569",Rachelchester,807,907-770-3121x131
"Gonzalez, Burke and Tucker","8759 Leslie Manor
West Eduardo, WA 74556",Lake Michaelview,4040,474-614-2806
Maldonado-Weber,"376 Shawn Street
New Bryanfort, AL 53372",West Jessicaport,2979,001-801-760-4706x3934
"West, Harris and Robles","93696 April Dale Apt. 593
South Tyler, MO 92626",Melindaside,3685,909.702.5450
Richardson-Perez,"2303 Sampson Manors Apt. 424
Billside, MP 40695",East Amber,2132,356-228-4776
Pierce PLC,"4269 Brandy Prairie Apt. 877
Jessicaberg, GA 10348",Millerborough,3274,001-806-942-2708x8324
Sandoval Inc,"53272 Burgess Corner Suite 890
Evansborough, MA 98100",West Sandra,2702,001-652-768-9385x59740
Hill Inc,"93869 Ortiz Inlet Suite 691
West Nancy, WV 39193",East Daniel,279,487-282-8634x7521
Chung and Sons,"Unit 8576 Box 3620
DPO AA 89206",Port James,2992,9387176624
"Hill, Molina and Jenkins","1041 Smith Brook Suite 880
West Alicia, FL 85084",New Timothy,2659,+1-202-458-1680x60503
Whitehead and Sons,"9060 Parsons Fields Apt. 076
Henryville, VI 67761",Margaretfort,965,919.972.3472x66271
"Munoz, Conley and Harrison","508 Hansen Loop
Chadborough, ME 48382",Davidburgh,171,773-625-3596x56715
Turner-Gonzalez,"43125 Payne Garden
Nicholsberg, WA 96424",New Dustin,195,(423)536-4729
"Johnson, Wiley and Huffman","3184 David Glens
Danafort, MH 21807",North Thomas,3202,(294)305-1523
Smith-Daniels,"995 Mark Light Apt. 891
New Jessicashire, WV 73342",West Anthonyville,3700,739.900.0124
Wood-Hall,"9435 Anthony Port
Lewisburgh, GA 10865",East Martha,3259,267-904-4053
Stevens Ltd,"PSC 1834, Box 4743
APO AP 70438",Clarkside,1398,645.741.9753
Owens Inc,"9295 Ashley Mount
West Daniel, PA 06321",Hallview,4491,(966)692-4697x9435
"Jacobs, Cunningham and Williams","401 Parker Cape Apt. 660
Williamstad, IL 47845",East Matthew,2615,(330)538-3217x9545
Daniel-Brown,"41140 Porter Expressway Apt. 828
Meganchester, WI 71452",Matthewshire,786,937.243.2753x1954
Rodriguez PLC,"72638 Gloria Cove Suite 845
Port Jessechester, FM 15333",North Nicolechester,4116,914-384-8478
Garcia LLC,"117 Garcia Row Suite 565
Lake Marcusborough, FM 88631",Deborahmouth,3434,001-482-809-4073
Vazquez Inc,"28228 John Bridge
Sarahbury, MH 35802",Petersport,1974,001-754-336-0858
Cruz and Sons,"548 Phillips Parkways Suite 845
Lake Maria, DE 13566",Russellbury,4449,6652326441
Sullivan-Johnson,"USCGC White
FPO AA 30267",Laurenhaven,1890,+1-586-567-0997x938
Mann-Gray,"PSC 8579, Box 1666
APO AE 35850",Nataliebury,3388,001-482-260-2697
"Sims, Mckenzie and Peterson","979 Price Orchard
Brucestad, IN 17013",Cookchester,1200,254.552.0577x332
Lin-Gibson,"25757 Diana Garden Apt. 477
Lake Morgan, HI 63762",Michaelburgh,3533,001-925-232-0774x853
"Williams, Williams and Jenkins","566 Blake Knolls Suite 741
Laurieborough, KS 50630",North Donnamouth,4147,422.880.0783
Simpson LLC,"12546 Howard Crest
South Amyville, IN 42906",Port Katherineville,3604,001-799-689-0787x413
Hebert-Hall,"8948 Crosby Plaza Suite 958
South Paulashire, NM 72657",Kirkmouth,4666,001-452-534-6798x80284
Rodriguez LLC,"31970 Edwards Court
New Mariaport, MP 84518",Velezmouth,1660,(268)495-5521x8405
Leonard PLC,"061 Alvin Mission
Chadmouth, TX 13769",Chavezburgh,4992,517-244-7425x2084
Walters-Lopez,"744 Samuel Route Apt. 553
Dennisview, HI 55203",North Matthewside,1596,9077109161
Conley LLC,"2451 Katherine Village
Lake Jay, KY 03922",Lloydbury,4902,661-231-2890x5777
Moore-Beck,"016 Dustin Motorway Apt. 953
Garciaberg, AR 05961",Garyfurt,4413,496-370-7407
Sexton Ltd,"7276 Bean River Suite 031
West Michaelview, HI 89783",Whitefurt,4272,761-531-0556x8396
Marsh and Sons,"41130 Eric Drives
East Derrickland, AZ 63943",North Laura,315,722-379-1406x4859
Deleon-Monroe,"72624 Jason Parks
Julieburgh, VA 67005",South Richard,4276,001-628-451-8774x4559
Thompson-Odom,"43181 Autumn Mall Apt. 523
West Kimberlybury, FM 72918",Coleport,4592,279-217-5187x919
"Mullins, Chavez and Hughes","519 Heather Locks Apt. 234
Lake Zacharyton, PR 72998",Carolynstad,4104,+1-285-949-5265
Carter Group,"6876 Hutchinson Roads
Michaelport, OK 64021",Bentleyfurt,3028,(737)864-0322
"Cohen, Hernandez and Martin","660 Ashley Ford
Lake Sheilaport, VA 57700",Abigailport,4865,788.624.2341
Richards PLC,"1129 Morales Tunnel
South Thomas, NV 41978",Port Brucechester,1542,+1-930-955-1354
Anderson Group,"2135 Young Pines Suite 938
South Marieton, AS 29943",South Sandy,1172,8236368760
Smith-Moore,"084 Garcia Light
Dianaside, OK 62749",Cooktown,3273,(456)822-1554
"Coleman, Martin and Allen","776 Garcia Corners
West Heatherborough, VA 76949",East Susan,3030,792.864.8791x62576
"Hines, Stein and Smith","1334 Holt Prairie Suite 999
Romeroside, KS 44477",Jimenezport,2426,839.954.9431
"Rios, Thornton and Price","2450 Sutton Cliffs Apt. 178
Robinsonside, ID 19370",North Laurie,1439,568.365.6704x483
Holmes-James,"60358 William Falls
Martinezbury, NV 24643",North Bradleyfurt,681,994.257.8023
Nielsen-Rojas,"10505 Scott Parkways Apt. 623
New Patrickshire, CA 26890",Alexandraborough,1603,(300)352-2377x29413
"Hood, Hall and Clay","21262 Nicholas Plains
Cuevasshire, CA 65944",Austintown,2065,500.776.0691x98944
"Obrien, Tran and Young","898 Shannon Courts
Tamaraville, GA 89512",Douglastown,2569,001-707-490-2299x5975
"Fields, Atkins and Kelly","632 Roberts Points Apt. 356
New Patrick, TX 62149",East Benjaminport,1926,837-410-2485x20292
"Smith, Martinez and Thomas","USNS Alvarez
FPO AA 81198",East Elizabethburgh,2956,314-760-2167
"Anderson, Vasquez and Williams","Unit 6752 Box 2372
DPO AE 82696",West Jeremytown,666,684.254.8408
Cantrell LLC,"Unit 2663 Box 4018
DPO AA 29755",West Theodore,4604,536.979.6571x7722
White-Contreras,"039 Arnold Pines Apt. 940
North Lisaside, TN 43363",West Dylanberg,1552,+1-686-777-9711x0728
"Bradshaw, Johnson and Rodriguez","PSC 2078, Box 2093
APO AE 24595",Michaelborough,2457,+1-683-443-9387x763
Monroe LLC,"1375 Shelby Squares Apt. 170
New Lydiaville, WV 41054",Liuburgh,906,786-368-9394
Edwards Inc,"817 Catherine Brook Apt. 155
Carlosville, NY 68909",South Josephhaven,3500,4215615846
Palmer Group,"5953 Elizabeth Groves Suite 898
Garnerview, CA 68065",Brianshire,910,+1-465-375-8149x03955
Shelton PLC,"6621 Jones Club Apt. 875
Lake Devinstad, LA 29154",Port Megan,2805,(784)984-1556
"Porter, Crosby and Gonzales","42681 Laura Ridges Apt. 683
Lake Allisonton, PA 12176",West Timothyhaven,3764,(760)397-8834x8584
"Todd, Brown and Lee","502 Black Drive
Hoganside, DC 10369",North Robert,1137,001-753-240-0592
"Allen, Francis and Pennington","677 Kelly Cliff Suite 869
Vaughnberg, NY 66240",New Rachelborough,2988,(853)688-1279
Bennett Group,"17588 Evans Plaza Suite 735
Bridgetview, AL 50927",Nortonhaven,280,001-623-616-6259
Dalton-Miller,"46454 Smith Glens Suite 133
Vickibury, DC 99201",Stevensfort,2825,(382)396-1696
Spears Inc,"40076 Crystal Trail Suite 755
Victoriaberg, OR 34245",Jamesburgh,2575,+1-230-218-5933x6370
